STARLINK-31296          
1 58879U 24020D   26068.88423204  .00036654  00000+0  12469-2 0  9995
2 58879  53.1600 295.7482 0001374  95.0661 265.0496 15.30115201118464
BANDWAGON-2 OBJECT D    
1 62380U 24247D   26068.52261193  .00011259  00000+0  40119-3 0  9994
2 62380  44.9954 115.6710 0003488 351.1453   8.9368 15.29076102 67732
